STARLINK-3328           
1 50832U 22001AF  26068.58501413  .00000604  00000+0  56005-4 0  9991
2 50832  53.2182 179.6406 0001185  88.7271 271.3857 15.08836107230256
STRIX-5                 
1 65971U 25229A   26068.48916036  .00006129  00000+0  44900-3 0  9994
2 65971  41.9265 119.8574 0036941 120.2079 240.2413 15.03509399 21964
